{
  "type": "FeatureCollection",
  "features": [
    {
      "type": "Feature",
      "properties": {
        "norad_id": 31367,
        "name": "FENGYUN 1C DEB",
        "group": "fengyun-1c-debris",
        "lat": 64.06422318644786,
        "lon": 81.25375839127146,
        "alt_km": 743.1210553836772,
        "timestamp": "2025-12-14T11:29:50.342440+00:00",
        "meta_object_name": "FENGYUN 1C DEB",
        "meta_object_id": "1999-025BRX",
        "meta_epoch": "2025-12-12T15:58:33.316896",
        "meta_mean_motion": 14.47488603,
        "meta_eccentricity": 0.00994932,
        "meta_inclination": 98.7454,
        "meta_ra_of_asc_node": 240.9278,
        "meta_arg_of_pericenter": 16.6469,
        "meta_mean_anomaly": 12.6115,
        "meta_ephemeris_type": 0,
        "meta_classification_type": "U",
        "meta_norad_cat_id": 31367,
        "meta_element_set_no": 999,
        "meta_rev_at_epoch": 98465,
        "meta_bstar": 0.00099827526,
        "meta_mean_motion_dot": 3.853e-05,
        "meta_mean_motion_ddot": 0,
        "tle_line1": "1 31367U 99025BRX 25346.66566339  .00003853  00000+0  99828-3 0  9996",
        "tle_line2": "2 31367  98.7454 240.9278 0099493  16.6469  12.6115 14.47488603984650"
      },
      "geometry": {
        "type": "Point",
        "coordinates": [
          81.25375839127146,
          64.06422318644786
        ]
      }
    },
    {
      "type": "Feature",
      "properties": {
        "norad_id": 31369,
        "name": "FENGYUN 1C DEB",
        "group": "fengyun-1c-debris",
        "lat": -11.81546389473797,
        "lon": -28.47344140681215,
        "alt_km": 808.2128916507518,
        "timestamp": "2025-12-14T11:29:50.342450+00:00",
        "meta_object_name": "FENGYUN 1C DEB",
        "meta_object_id": "1999-025BRZ",
        "meta_epoch": "2025-12-11T04:19:15.253824",
        "meta_mean_motion": 14.19407424,
        "meta_eccentricity": 0.00545514,
        "meta_inclination": 98.6193,
        "meta_ra_of_asc_node": 326.4983,
        "meta_arg_of_pericenter": 304.0379,
        "meta_mean_anomaly": 115.5695,
        "meta_ephemeris_type": 0,
        "meta_classification_type": "U",
        "meta_norad_cat_id": 31369,
        "meta_element_set_no": 999,
        "meta_rev_at_epoch": 64305,
        "meta_bstar": 0.00043400401,
        "meta_mean_motion_dot": 8.83e-06,
        "meta_mean_motion_ddot": 0,
        "tle_line1": "1 31369U 99025BRZ 25345.18003766  .00000883  00000+0  43400-3 0  9999",
        "tle_line2": "2 31369  98.6193 326.4983 0054551 304.0379 115.5695 14.19407424643057"
      },
      "geometry": {
        "type": "Point",
        "coordinates": [
          -28.47344140681215,
          -11.81546389473797
        ]
      }
    },
    {
      "type": "Feature",
      "properties": {
        "norad_id": 31370,
        "name": "FENGYUN 1C DEB",
        "group": "fengyun-1c-debris",
        "lat": 60.36527263341888,
        "lon": -27.273110305466247,
        "alt_km": 869.5452486922677,
        "timestamp": "2025-12-14T11:29:50.342460+00:00",
        "meta_object_name": "FENGYUN 1C DEB",
        "meta_object_id": "1999-025BSA",
        "meta_epoch": "2025-12-13T13:03:41.310432",
        "meta_mean_motion": 14.09708196,
        "meta_eccentricity": 0.00332964,
        "meta_inclination": 98.7541,
        "meta_ra_of_asc_node": 347.5331,
        "meta_arg_of_pericenter": 295.4018,
        "meta_mean_anomaly": 64.3707,
        "meta_ephemeris_type": 0,
        "meta_classification_type": "U",
        "meta_norad_cat_id": 31370,
        "meta_element_set_no": 999,
        "meta_rev_at_epoch": 96305,
        "meta_bstar": 0.0004603882,
        "meta_mean_motion_dot": 7.69e-06,
        "meta_mean_motion_ddot": 0,
        "tle_line1": "1 31370U 99025BSA 25347.54422813  .00000769  00000+0  46039-3 0  9995",
        "tle_line2": "2 31370  98.7541 347.5331 0033296 295.4018  64.3707 14.09708196963053"
      },
      "geometry": {
        "type": "Point",
        "coordinates": [
          -27.273110305466247,
          60.36527263341888
        ]
      }
    },
    {
      "type": "Feature",
      "properties": {
        "norad_id": 31371,
        "name": "FENGYUN 1C DEB",
        "group": "fengyun-1c-debris",
        "lat": -66.54668016527042,
        "lon": 42.24460118356707,
        "alt_km": 849.0027194956583,
        "timestamp": "2025-12-14T11:29:50.342470+00:00",
        "meta_object_name": "FENGYUN 1C DEB",
        "meta_object_id": "1999-025BSB",
        "meta_epoch": "2025-12-13T08:27:54.563904",
        "meta_mean_motion": 14.04510996,
        "meta_eccentricity": 0.00777303,
        "meta_inclination": 98.7664,
        "meta_ra_of_asc_node": 20.3227,
        "meta_arg_of_pericenter": 244.8947,
        "meta_mean_anomaly": 114.4141,
        "meta_ephemeris_type": 0,
        "meta_classification_type": "U",
        "meta_norad_cat_id": 31371,
        "meta_element_set_no": 999,
        "meta_rev_at_epoch": 95755,
        "meta_bstar": 0.0010200747,
        "meta_mean_motion_dot": 1.629e-05,
        "meta_mean_motion_ddot": 0,
        "tle_line1": "1 31371U 99025BSB 25347.35271486  .00001629  00000+0  10201-2 0  9990",
        "tle_line2": "2 31371  98.7664  20.3227 0077730 244.8947 114.4141 14.04510996957551"
      },
      "geometry": {
        "type": "Point",
        "coordinates": [
          42.24460118356707,
          -66.54668016527042
        ]
      }
    },
    {
      "type": "Feature",
      "properties": {
        "norad_id": 31372,
        "name": "FENGYUN 1C DEB",
        "group": "fengyun-1c-debris",
        "lat": 9.480484438434202,
        "lon": 161.22436880258118,
        "alt_km": 809.1329056615359,
        "timestamp": "2025-12-14T11:29:50.342480+00:00",
        "meta_object_name": "FENGYUN 1C DEB",
        "meta_object_id": "1999-025BSC",
        "meta_epoch": "2025-12-12T16:37:20.016192",
        "meta_mean_motion": 14.26536395,
        "meta_eccentricity": 0.00338558,
        "meta_inclination": 99.3738,
        "meta_ra_of_asc_node": 337.7324,
        "meta_arg_of_pericenter": 75.0305,
        "meta_mean_anomaly": 285.4617,
        "meta_ephemeris_type": 0,
        "meta_classification_type": "U",
        "meta_norad_cat_id": 31372,
        "meta_element_set_no": 999,
        "meta_rev_at_epoch": 95850,
        "meta_bstar": 0.0023753396,
        "meta_mean_motion_dot": 5.717e-05,
        "meta_mean_motion_ddot": 0,
        "tle_line1": "1 31372U 99025BSC 25346.69259278  .00005717  00000+0  23753-2 0  9990",
        "tle_line2": "2 31372  99.3738 337.7324 0033855  75.0305 285.4617 14.26536395958504"
      },
      "geometry": {
        "type": "Point",
        "coordinates": [
          161.22436880258118,
          9.480484438434202
        ]
      }
    },
    {
      "type": "Feature",
      "properties": {
        "norad_id": 31376,
        "name": "FENGYUN 1C DEB",
        "group": "fengyun-1c-debris",
        "lat": -66.23626122400323,
        "lon": -74.51182158750368,
        "alt_km": 664.1610915852825,
        "timestamp": "2025-12-14T11:29:50.342490+00:00",
        "meta_object_name": "FENGYUN 1C DEB",
        "meta_object_id": "1999-025BSG",
        "meta_epoch": "2025-12-12T12:09:49.308480",
        "meta_mean_motion": 14.61708051,
        "meta_eccentricity": 0.00491029,
        "meta_inclination": 98.8321,
        "meta_ra_of_asc_node": 262.7035,
        "meta_arg_of_pericenter": 269.6811,
        "meta_mean_anomaly": 89.8762,
        "meta_ephemeris_type": 0,
        "meta_classification_type": "U",
        "meta_norad_cat_id": 31376,
        "meta_element_set_no": 999,
        "meta_rev_at_epoch": 98139,
        "meta_bstar": 0.0033608711,
        "meta_mean_motion_dot": 0.00017016,
        "meta_mean_motion_ddot": 0,
        "tle_line1": "1 31376U 99025BSG 25346.50682070  .00017016  00000+0  33609-2 0  9990",
        "tle_line2": "2 31376  98.8321 262.7035 0049102 269.6811  89.8762 14.61708051981390"
      },
      "geometry": {
        "type": "Point",
        "coordinates": [
          -74.51182158750368,
          -66.23626122400323
        ]
      }
    },
    {
      "type": "Feature",
      "properties": {
        "norad_id": 31378,
        "name": "FENGYUN 1C DEB",
        "group": "fengyun-1c-debris",
        "lat": 55.590329595053774,
        "lon": 73.74993470031463,
        "alt_km": 915.4591822628772,
        "timestamp": "2025-12-14T11:29:50.342500+00:00",
        "meta_object_name": "FENGYUN 1C DEB",
        "meta_object_id": "1999-025BSJ",
        "meta_epoch": "2025-12-11T21:59:42.993312",
        "meta_mean_motion": 13.80074441,
        "meta_eccentricity": 0.0168447,
        "meta_inclination": 100.7553,
        "meta_ra_of_asc_node": 234.7301,
        "meta_arg_of_pericenter": 199.9707,
        "meta_mean_anomaly": 159.4794,
        "meta_ephemeris_type": 0,
        "meta_classification_type": "U",
        "meta_norad_cat_id": 31378,
        "meta_element_set_no": 999,
        "meta_rev_at_epoch": 94212,
        "meta_bstar": 0.0009758,
        "meta_mean_motion_dot": 1.073e-05,
        "meta_mean_motion_ddot": 0,
        "tle_line1": "1 31378U 99025BSJ 25345.91646983  .00001073  00000+0  97580-3 0  9994",
        "tle_line2": "2 31378 100.7553 234.7301 0168447 199.9707 159.4794 13.80074441942126"
      },
      "geometry": {
        "type": "Point",
        "coordinates": [
          73.74993470031463,
          55.590329595053774
        ]
      }
    }
  ]
}